{
    "links": {
        "self": "http://www.neowsapp.com/rest/v1/neo/3428702?api_key=iIulBulltgU6a56xZRHN4H3l9WmuAYTsLGpBGhQ2"
    },
    "id": "3428702",
    "neo_reference_id": "3428702",
    "name": "(2008 TH)",
    "designation": "2008 TH",
    "nasa_jpl_url": "http://ssd.jpl.nasa.gov/sbdb.cgi?sstr=3428702",
    "absolute_magnitude_h": 24.9,
    "estimated_diameter": {
        "kilometers": {
            "estimated_diameter_min": 0.0278326768,
            "estimated_diameter_max": 0.0622357573
        },
        "meters": {
            "estimated_diameter_min": 27.8326768072,
            "estimated_diameter_max": 62.2357573367
        },
        "miles": {
            "estimated_diameter_min": 0.0172944182,
            "estimated_diameter_max": 0.0386714948
        },
        "feet": {
            "estimated_diameter_min": 91.3145593761,
            "estimated_diameter_max": 204.1855621004
        }
    },
    "is_potentially_hazardous_asteroid": false,
    "close_approach_data": [
        {
            "close_approach_date": "2008-10-16",
            "close_approach_date_full": "2008-Oct-16 05:09",
            "epoch_date_close_approach": 1224133740000,
            "relative_velocity": {
                "kilometers_per_second": "16.0330830051",
                "kilometers_per_hour": "57719.0988181984",
                "miles_per_hour": "35864.4033740078"
            },
            "miss_distance": {
                "astronomical": "0.0623296638",
                "lunar": "24.2462392182",
                "kilometers": "9324384.942296106",
                "miles": "5793904.1362380228"
            },
            "orbiting_body": "Earth"
        },
        {
            "close_approach_date": "2052-09-28",
            "close_approach_date_full": "2052-Sep-28 02:11",
            "epoch_date_close_approach": 2611102260000,
            "relative_velocity": {
                "kilometers_per_second": "27.5704281763",
                "kilometers_per_hour": "99253.541434639",
                "miles_per_hour": "61672.29078754"
            },
            "miss_distance": {
                "astronomical": "0.3482897585",
                "lunar": "135.4847160565",
                "kilometers": "52103406.014414395",
                "miles": "32375555.222912851"
            },
            "orbiting_body": "Earth"
        }
    ],
    "orbital_data": {
        "orbit_id": "10",
        "orbit_determination_date": "2017-04-06 09:02:45",
        "first_observation_date": "2008-10-01",
        "last_observation_date": "2008-10-07",
        "data_arc_in_days": 6,
        "observations_used": 25,
        "orbit_uncertainty": "9",
        "minimum_orbit_intersection": ".0395163",
        "jupiter_tisserand_invariant": "4.685",
        "epoch_osculation": "2454742.5",
        "eccentricity": ".5620160382610946",
        "semi_major_axis": "1.350146381552652",
        "inclination": "9.332576453208732",
        "ascending_node_longitude": "7.295031569767956",
        "orbital_period": "573.0199100065796",
        "perihelion_distance": ".5913424611198785",
        "perihelion_argument": "112.1077992455602",
        "aphelion_distance": "2.108950301985427",
        "perihelion_time": "2454810.895761439678",
        "mean_anomaly": "317.0303340454586",
        "mean_motion": ".628250421518279",
        "equinox": "J2000",
        "orbit_class": {
            "orbit_class_type": "APO",
            "orbit_class_description": "Near-Earth asteroid orbits which cross the Earth’s orbit similar to that of 1862 Apollo",
            "orbit_class_range": "a (semi-major axis) > 1.0 AU; q (perihelion) < 1.017 AU"
        }
    },
    "is_sentry_object": false
}